[{"OBJECT_NAME":"KONDOR-FKA NO. 1","OBJECT_ID":"2023-074A","EPOCH":"2026-03-07T10:13:03.575712","MEAN_MOTION":15.19772289,"ECCENTRICITY":0.00017305,"INCLINATION":97.4394,"RA_OF_ASC_NODE":262.4533,"ARG_OF_PERICENTER":84.6258,"MEAN_ANOMALY":275.5174,"EPHEMERIS_TYPE":0,"CLASSIFICATION_TYPE":"U","NORAD_CAT_ID":56756,"ELEMENT_SET_NO":999,"REV_AT_EPOCH":15423,"BSTAR":0.0003518818,"MEAN_MOTION_DOT":7.463e-5,"MEAN_MOTION_DDOT":0},{"OBJECT_NAME":"KESTREL-0A","OBJECT_ID":"2025-138D","EPOCH":"2026-03-09T23:29:46.959072","MEAN_MOTION":15.21159497,"ECCENTRICITY":0.00158913,"INCLINATION":97.443,"RA_OF_ASC_NODE":74.1203,"ARG_OF_PERICENTER":109.5327,"MEAN_ANOMALY":250.7627,"EPHEMERIS_TYPE":0,"CLASSIFICATION_TYPE":"U","NORAD_CAT_ID":64624,"ELEMENT_SET_NO":999,"REV_AT_EPOCH":3885,"BSTAR":0.00055701832,"MEAN_MOTION_DOT":0.00012392,"MEAN_MOTION_DDOT":0}]
